{
    "links": {
        "self": "http://www.neowsapp.com/rest/v1/neo/3985566?api_key=iIulBulltgU6a56xZRHN4H3l9WmuAYTsLGpBGhQ2"
    },
    "id": "3985566",
    "neo_reference_id": "3985566",
    "name": "(2020 AQ2)",
    "designation": "2020 AQ2",
    "nasa_jpl_url": "http://ssd.jpl.nasa.gov/sbdb.cgi?sstr=3985566",
    "absolute_magnitude_h": 25.758,
    "estimated_diameter": {
        "kilometers": {
            "estimated_diameter_min": 0.0187480014,
            "estimated_diameter_max": 0.0419218055
        },
        "meters": {
            "estimated_diameter_min": 18.748001371,
            "estimated_diameter_max": 41.9218055078
        },
        "miles": {
            "estimated_diameter_min": 0.0116494644,
            "estimated_diameter_max": 0.0260489942
        },
        "feet": {
            "estimated_diameter_min": 61.509192818,
            "estimated_diameter_max": 137.5387363821
        }
    },
    "is_potentially_hazardous_asteroid": false,
    "close_approach_data": [
        {
            "close_approach_date": "2020-01-04",
            "close_approach_date_full": "2020-Jan-04 06:23",
            "epoch_date_close_approach": 1578118980000,
            "relative_velocity": {
                "kilometers_per_second": "6.7534974429",
                "kilometers_per_hour": "24312.5907943398",
                "miles_per_hour": "15106.8984299608"
            },
            "miss_distance": {
                "astronomical": "0.0592724103",
                "lunar": "23.0569676067",
                "kilometers": "8867026.330646061",
                "miles": "5509714.6729992018"
            },
            "orbiting_body": "Earth"
        }
    ],
    "orbital_data": {
        "orbit_id": "2",
        "orbit_determination_date": "2020-01-18 05:00:25",
        "first_observation_date": "2020-01-06",
        "last_observation_date": "2020-01-18",
        "data_arc_in_days": 12,
        "observations_used": 24,
        "orbit_uncertainty": "8",
        "minimum_orbit_intersection": ".0516767",
        "jupiter_tisserand_invariant": "3.296",
        "epoch_osculation": "2458855.5",
        "eccentricity": ".5663923015124767",
        "semi_major_axis": "2.386379422931062",
        "inclination": "1.350333501316693",
        "ascending_node_longitude": "277.8348324139239",
        "orbital_period": "1346.504069264181",
        "perihelion_distance": "1.034752489295122",
        "perihelion_argument": "194.3024473850646",
        "aphelion_distance": "3.738006356567003",
        "perihelion_time": "2458859.455819401305",
        "mean_anomaly": "358.9423760262024",
        "mean_motion": ".2673590137731464",
        "equinox": "J2000",
        "orbit_class": {
            "orbit_class_type": "AMO",
            "orbit_class_description": "Near-Earth asteroid orbits similar to that of 1221 Amor",
            "orbit_class_range": "1.017 AU < q (perihelion) < 1.3 AU"
        }
    },
    "is_sentry_object": false
}